KUIPER-00035            
1 63748U 25088AA  25276.49786366  .00004446  00000+0  61168-3 0  9994
2 63748  51.8987  89.2038 0004295 268.2096  91.8375 14.79941183 24232
KUIPER-00037            
1 63749U 25088AB  25275.82416797 -.00001233  00000+0 -13246-3 0  9996
2 63749  51.8978  91.1418 0007263 208.5239 151.5327 14.79928626 24936
KUIPER-00038            
1 63750U 25088AC  25276.47629654  .00005270  00000+0  75848-3 0  9997
2 63750  51.9005  72.8561 0005279 279.9456  80.0909 14.77689852 24242
KUIPER-00039            
1 64500U 25134A   25276.01545139  .00011141  00000+0  15012-2 0  9998
2 64500  51.8992 210.3074 0012741 132.7496 227.4540 14.79516016 16725
KUIPER-00040            
1 64501U 25134B   25276.54339526  .00001853  00000+0  27161-3 0  9996
2 64501  51.8989 219.1404 0018940 111.9651 248.3327 14.79988240 16643
KUIPER-00041            
1 64502U 25134C   25276.54232594  .00004197  00000+0  57902-3 0  9994
2 64502  51.8989 220.5050 0015247 105.2546 255.0103 14.79899654 16628
KUIPER-00042            
1 64503U 25134D   25276.07332567  .00032142  00000+0  42719-2 0  9994
2 64503  51.8986 218.5747 0015754 104.4374 255.8338 14.79388384 16619
KUIPER-00043            
1 64504U 25134E   25276.66670139  .00039364  00000+0  51701-2 0  9994
2 64504  51.9013 208.3822 0004733 116.8471 122.4730 14.79864299  5474
